{
  "type": "FeatureCollection",
  "features": [
    {
      "type": "Feature",
      "properties": {
        "norad_id": 40889,
        "name": "GSAT0205 (GALILEO 9)",
        "group": "galileo",
        "lat": -25.525934203658167,
        "lon": -153.05630354655503,
        "alt_km": 23220.69021614942,
        "timestamp": "2025-12-23T05:02:12.293742+00:00",
        "meta_object_name": "GSAT0205 (GALILEO 9)",
        "meta_object_id": "2015-045A",
        "meta_epoch": "2025-12-22T02:07:17.397984",
        "meta_mean_motion": 1.70473205,
        "meta_eccentricity": 0.00062597,
        "meta_inclination": 55.0005,
        "meta_ra_of_asc_node": 226.4997,
        "meta_arg_of_pericenter": 42.8836,
        "meta_mean_anomaly": 317.2713,
        "meta_ephemeris_type": 0,
        "meta_classification_type": "U",
        "meta_norad_cat_id": 40889,
        "meta_element_set_no": 999,
        "meta_rev_at_epoch": 6399,
        "meta_bstar": 0,
        "meta_mean_motion_dot": 7.3e-07,
        "meta_mean_motion_ddot": 0,
        "tle_line1": "1 40889U 15045A   25356.08839581  .00000073  00000+0  00000+0 0  9995",
        "tle_line2": "2 40889  55.0005 226.4997 0006259  42.8836 317.2713  1.70473205 63998"
      },
      "geometry": {
        "type": "Point",
        "coordinates": [
          -153.05630354655503,
          -25.525934203658167
        ]
      }
    },
    {
      "type": "Feature",
      "properties": {
        "norad_id": 40890,
        "name": "GSAT0206 (GALILEO 10)",
        "group": "galileo",
        "lat": -10.585151489520918,
        "lon": 54.00196744631499,
        "alt_km": 23234.902092278488,
        "timestamp": "2025-12-23T05:02:12.293753+00:00",
        "meta_object_name": "GSAT0206 (GALILEO 10)",
        "meta_object_id": "2015-045B",
        "meta_epoch": "2025-12-21T03:15:40.639392",
        "meta_mean_motion": 1.70473045,
        "meta_eccentricity": 0.00044191,
        "meta_inclination": 54.9998,
        "meta_ra_of_asc_node": 226.5212,
        "meta_arg_of_pericenter": 45.8333,
        "meta_mean_anomaly": 314.3117,
        "meta_ephemeris_type": 0,
        "meta_classification_type": "U",
        "meta_norad_cat_id": 40890,
        "meta_element_set_no": 999,
        "meta_rev_at_epoch": 6400,
        "meta_bstar": 0,
        "meta_mean_motion_dot": 7.2e-07,
        "meta_mean_motion_ddot": 0,
        "tle_line1": "1 40890U 15045B   25355.13588703  .00000072  00000+0  00000+0 0  9998",
        "tle_line2": "2 40890  54.9998 226.5212 0004419  45.8333 314.3117  1.70473045 64002"
      },
      "geometry": {
        "type": "Point",
        "coordinates": [
          54.00196744631499,
          -10.585151489520918
        ]
      }
    },
    {
      "type": "Feature",
      "properties": {
        "norad_id": 41174,
        "name": "GSAT0209 (GALILEO 12)",
        "group": "galileo",
        "lat": 55.74077310315331,
        "lon": -164.30927974191098,
        "alt_km": 23217.89482105585,
        "timestamp": "2025-12-23T05:02:12.293764+00:00",
        "meta_object_name": "GSAT0209 (GALILEO 12)",
        "meta_object_id": "2015-079A",
        "meta_epoch": "2025-12-21T21:22:17.332896",
        "meta_mean_motion": 1.70474556,
        "meta_eccentricity": 0.00025231,
        "meta_inclination": 55.7178,
        "meta_ra_of_asc_node": 106.13,
        "meta_arg_of_pericenter": 342.7574,
        "meta_mean_anomaly": 17.2091,
        "meta_ephemeris_type": 0,
        "meta_classification_type": "U",
        "meta_norad_cat_id": 41174,
        "meta_element_set_no": 999,
        "meta_rev_at_epoch": 6175,
        "meta_bstar": 0,
        "meta_mean_motion_dot": 5e-08,
        "meta_mean_motion_ddot": 0,
        "tle_line1": "1 41174U 15079A   25355.89047839  .00000005  00000+0  00000+0 0  9990",
        "tle_line2": "2 41174  55.7178 106.1300 0002523 342.7574  17.2091  1.70474556 61755"
      },
      "geometry": {
        "type": "Point",
        "coordinates": [
          -164.30927974191098,
          55.74077310315331
        ]
      }
    },
    {
      "type": "Feature",
      "properties": {
        "norad_id": 41175,
        "name": "GSAT0208 (GALILEO 11)",
        "group": "galileo",
        "lat": -36.05044611107577,
        "lon": 76.3685912238587,
        "alt_km": 23222.747103572674,
        "timestamp": "2025-12-23T05:02:12.293776+00:00",
        "meta_object_name": "GSAT0208 (GALILEO 11)",
        "meta_object_id": "2015-079B",
        "meta_epoch": "2025-12-20T08:25:16.296384",
        "meta_mean_motion": 1.70474393,
        "meta_eccentricity": 0.00018076,
        "meta_inclination": 55.7157,
        "meta_ra_of_asc_node": 106.1693,
        "meta_arg_of_pericenter": 359.1842,
        "meta_mean_anomaly": 0.7815,
        "meta_ephemeris_type": 0,
        "meta_classification_type": "U",
        "meta_norad_cat_id": 41175,
        "meta_element_set_no": 999,
        "meta_rev_at_epoch": 6214,
        "meta_bstar": 0,
        "meta_mean_motion_dot": -2e-08,
        "meta_mean_motion_ddot": 0,
        "tle_line1": "1 41175U 15079B   25354.35088306 -.00000002  00000+0  00000+0 0  9993",
        "tle_line2": "2 41175  55.7157 106.1693 0001807 359.1842   0.7815  1.70474393 62146"
      },
      "geometry": {
        "type": "Point",
        "coordinates": [
          76.3685912238587,
          -36.05044611107577
        ]
      }
    },
    {
      "type": "Feature",
      "properties": {
        "norad_id": 41549,
        "name": "GSAT0211 (GALILEO 14)",
        "group": "galileo",
        "lat": -44.3656465564479,
        "lon": 89.49911310425112,
        "alt_km": 23236.570014628585,
        "timestamp": "2025-12-23T05:02:12.293787+00:00",
        "meta_object_name": "GSAT0211 (GALILEO 14)",
        "meta_object_id": "2016-030A",
        "meta_epoch": "2025-12-22T05:38:05.943264",
        "meta_mean_motion": 1.70473275,
        "meta_eccentricity": 0.00040882,
        "meta_inclination": 55.1491,
        "meta_ra_of_asc_node": 226.562,
        "meta_arg_of_pericenter": 17.521,
        "meta_mean_anomaly": 342.5988,
        "meta_ephemeris_type": 0,
        "meta_classification_type": "U",
        "meta_norad_cat_id": 41549,
        "meta_element_set_no": 999,
        "meta_rev_at_epoch": 5965,
        "meta_bstar": 0,
        "meta_mean_motion_dot": 7.3e-07,
        "meta_mean_motion_ddot": 0,
        "tle_line1": "1 41549U 16030A   25356.23479101  .00000073  00000+0  00000+0 0  9999",
        "tle_line2": "2 41549  55.1491 226.5620 0004088  17.5210 342.5988  1.70473275 59659"
      },
      "geometry": {
        "type": "Point",
        "coordinates": [
          89.49911310425112,
          -44.3656465564479
        ]
      }
    },
    {
      "type": "Feature",
      "properties": {
        "norad_id": 41550,
        "name": "GSAT0210 (GALILEO 13)",
        "group": "galileo",
        "lat": 54.019168752979986,
        "lon": -59.8209172194171,
        "alt_km": 23216.73418437561,
        "timestamp": "2025-12-23T05:02:12.293798+00:00",
        "meta_object_name": "GSAT0210 (GALILEO 13)",
        "meta_object_id": "2016-030B",
        "meta_epoch": "2025-12-21T21:44:04.443936",
        "meta_mean_motion": 1.70473441,
        "meta_eccentricity": 5.71e-05,
        "meta_inclination": 55.1488,
        "meta_ra_of_asc_node": 226.5692,
        "meta_arg_of_pericenter": 197.0028,
        "meta_mean_anomaly": 163.1021,
        "meta_ephemeris_type": 0,
        "meta_classification_type": "U",
        "meta_norad_cat_id": 41550,
        "meta_element_set_no": 999,
        "meta_rev_at_epoch": 5964,
        "meta_bstar": 0,
        "meta_mean_motion_dot": 7.3e-07,
        "meta_mean_motion_ddot": 0,
        "tle_line1": "1 41550U 16030B   25355.90560699  .00000073  00000+0  00000+0 0  9997",
        "tle_line2": "2 41550  55.1488 226.5692 0000571 197.0028 163.1021  1.70473441 59649"
      },
      "geometry": {
        "type": "Point",
        "coordinates": [
          -59.8209172194171,
          54.019168752979986
        ]
      }
    },
    {
      "type": "Feature",
      "properties": {
        "norad_id": 41859,
        "name": "GSAT0207 (GALILEO 15)",
        "group": "galileo",
        "lat": -55.409706562839496,
        "lon": 15.435978705533195,
        "alt_km": 23223.206709787264,
        "timestamp": "2025-12-23T05:02:12.293808+00:00",
        "meta_object_name": "GSAT0207 (GALILEO 15)",
        "meta_object_id": "2016-069A",
        "meta_epoch": "2025-12-22T04:24:39.710016",
        "meta_mean_motion": 1.70474442,
        "meta_eccentricity": 0.00024396,
        "meta_inclination": 55.3874,
        "meta_ra_of_asc_node": 105.9888,
        "meta_arg_of_pericenter": 317.4324,
        "meta_mean_anomaly": 42.5257,
        "meta_ephemeris_type": 0,
        "meta_classification_type": "U",
        "meta_norad_cat_id": 41859,
        "meta_element_set_no": 999,
        "meta_rev_at_epoch": 5638,
        "meta_bstar": 0,
        "meta_mean_motion_dot": 6e-08,
        "meta_mean_motion_ddot": 0,
        "tle_line1": "1 41859U 16069A   25356.18379294  .00000006  00000+0  00000+0 0  9997",
        "tle_line2": "2 41859  55.3874 105.9888 0002439 317.4324  42.5257  1.70474442 56382"
      },
      "geometry": {
        "type": "Point",
        "coordinates": [
          15.435978705533195,
          -55.409706562839496
        ]
      }
    }
  ]
}